[{"OBJECT_NAME":"STARLINK-1230","OBJECT_ID":"2020-012M","EPOCH":"2026-03-09T03:54:34.185888","MEAN_MOTION":15.30210968,"ECCENTRICITY":0.00014271,"INCLINATION":53.1608,"RA_OF_ASC_NODE":42.1773,"ARG_OF_PERICENTER":87.4149,"MEAN_ANOMALY":272.7015,"EPHEMERIS_TYPE":0,"CLASSIFICATION_TYPE":"U","NORAD_CAT_ID":45189,"ELEMENT_SET_NO":999,"REV_AT_EPOCH":33208,"BSTAR":9.895075e-5,"MEAN_MOTION_DOT":2.573e-5,"MEAN_MOTION_DDOT":0},{"OBJECT_NAME":"OBJECT AD","OBJECT_ID":"2023-085AD","EPOCH":"2026-03-09T21:41:29.115744","MEAN_MOTION":15.31779154,"ECCENTRICITY":0.00101154,"INCLINATION":97.4841,"RA_OF_ASC_NODE":180.2223,"ARG_OF_PERICENTER":77.5993,"MEAN_ANOMALY":282.638,"EPHEMERIS_TYPE":0,"CLASSIFICATION_TYPE":"U","NORAD_CAT_ID":57031,"ELEMENT_SET_NO":999,"REV_AT_EPOCH":15156,"BSTAR":0.00068352515,"MEAN_MOTION_DOT":0.00020961,"MEAN_MOTION_DDOT":0}]
